$$SOE
2460721.500000000, A.D. 2025-Feb-15 00:00:00.0000, -1.384196388468287E+08, 4.107353248692443E+08, 9.099702735910478E+07,
2460728.500000000, A.D. 2025-Feb-22 00:00:00.0000, -1.480421329494336E+08, 4.089047953837603E+08, 9.019290518402776E+07,
2460735.500000000, A.D. 2025-Mar-01 00:00:00.0000, -1.575824690369582E+08, 4.068477904973518E+08, 8.933875308098400E+07,
2460742.500000000, A.D. 2025-Mar-08 00:00:00.0000, -1.670360745694298E+08, 4.045672940274337E+08, 8.843545126646154E+07,
2460749.500000000, A.D. 2025-Mar-15 00:00:00.0000, -1.763984813323140E+08, 4.020663256639853E+08, 8.748388388318929E+07,
2460756.500000000, A.D. 2025-Mar-22 00:00:00.0000, -1.856653246463746E+08, 3.993479392328310E+08, 8.648493884949324E+07,
2460763.500000000, A.D. 2025-Mar-29 00:00:00.0000, -1.948323412661887E+08, 3.964152188938208E+08, 8.543950744302112E+07,
2460770.500000000, A.D. 2025-Apr-05 00:00:00.0000, -2.038953656470645E+08, 3.932712764025145E+08, 8.434848384281324E+07,
2460777.500000000, A.D. 2025-Apr-12 00:00:00.0000, -2.128503265093065E+08, 3.899192495325198E+08, 8.321276481256770E+07,
2460784.500000000, A.D. 2025-Apr-19 00:00:00.0000, -2.216932438883566E+08, 3.863623007685986E+08, 8.203324946740340E+07,
2460791.500000000, A.D. 2025-Apr-26 00:00:00.0000, -2.304202264009044E+08, 3.826036160586979E+08, 8.081083907995397E+07,
2460798.500000000, A.D. 2025-May-03 00:00:00.0000, -2.390274686151367E+08, 3.786464036361793E+08, 7.954643691465268E+07,
2460805.500000000, A.D. 2025-May-10 00:00:00.0000, -2.475112484981054E+08, 3.744938929137329E+08, 7.824094808627738E+07,
2460812.500000000, A.D. 2025-May-17 00:00:00.0000, -2.558679249046992E+08, 3.701493334012449E+08, 7.689527943419564E+07,
2460819.500000000, A.D. 2025-May-24 00:00:00.0000, -2.640939349351961E+08, 3.656159935867562E+08, 7.551033939021085E+07,
2460826.500000000, A.D. 2025-May-31 00:00:00.0000, -2.721857907443893E+08, 3.608971600853065E+08, 7.408703782554176E+07,
2460833.500000000, A.D. 2025-Jun-07 00:00:00.0000, -2.801400762044312E+08, 3.559961382548831E+08, 7.262628601086594E+07,
2460840.500000000, A.D. 2025-Jun-14 00:00:00.0000, -2.879534457872217E+08, 3.509162536088063E+08, 7.112899685082956E+07,
2460847.500000000, A.D. 2025-Jun-21 00:00:00.0000, -2.956226244482307E+08, 3.456608507489964E+08, 6.959608501272649E+07,
2460854.500000000, A.D. 2025-Jun-28 00:00:00.0000, -3.031444053821577E+08, 3.402332915775204E+08, 6.802846680495796E+07,
2460861.500000000, A.D. 2025-Jul-05 00:00:00.0000, -3.105156471691332E+08, 3.346369549378900E+08, 6.642706011981353E+07,
2460868.500000000, A.D. 2025-Jul-12 00:00:00.0000, -3.177332715034401E+08, 3.288752368784192E+08, 6.479278448340842E+07,
2460875.500000000, A.D. 2025-Jul-19 00:00:00.0000, -3.247942613145478E+08, 3.229515509592280E+08, 6.312656114748800E+07,
2460882.500000000, A.D. 2025-Jul-26 00:00:00.0000, -3.316956590700511E+08, 3.168693285424240E+08, 6.142931319832544E+07,
2460889.500000000, A.D. 2025-Aug-02 00:00:00.0000, -3.384345651949978E+08, 3.106320190835322E+08, 5.970196567773947E+07,
2460896.500000000, A.D. 2025-Aug-09 00:00:00.0000, -3.450081365841562E+08, 3.042430904063924E+08, 5.794544571226220E+07,
2460903.500000000, A.D. 2025-Aug-16 00:00:00.0000, -3.514135851302456E+08, 2.977060288954520E+08, 5.616068263769706E+07,
2460910.500000000, A.D. 2025-Aug-23 00:00:00.0000, -3.576481759754552E+08, 2.910243396192137E+08, 5.434860809311481E+07,
2460917.500000000, A.D. 2025-Aug-30 00:00:00.0000, -3.637092251574457E+08, 2.842015470961125E+08, 5.251015611208197E+07,
2460924.500000000, A.D. 2025-Sep-06 00:00:00.0000, -3.695940980690756E+08, 2.772411977007334E+08, 5.064626342271581E+07,
2460931.500000000, A.D. 2025-Sep-13 00:00:00.0000, -3.753002104042653E+08, 2.701468612268097E+08, 4.875786990683223E+07,
2460938.500000000, A.D. 2025-Sep-20 00:00:00.0000, -3.808250283157687E+08, 2.629221299617645E+08, 4.684591878324805E+07,
2460945.500000000, A.D. 2025-Sep-27 00:00:00.0000, -3.861660667249667E+08, 2.555706183810396E+08, 4.491135667190021E+07,
2460952.500000000, A.D. 2025-Oct-04 00:00:00.0000, -3.913208878019290E+08, 2.480959639995819E+08, 4.295513376755197E+07,
2460959.500000000, A.D. 2025-Oct-11 00:00:00.0000, -3.962870999899176E+08, 2.405018284375072E+08, 4.097820407992417E+07,
2460966.500000000, A.D. 2025-Oct-18 00:00:00.0000, -4.010623572891671E+08, 2.327918984244068E+08, 3.898152569115134E+07,
2460973.500000000, A.D. 2025-Oct-25 00:00:00.0000, -4.056443586589988E+08, 2.249698867506402E+08, 3.696606101797345E+07,
2460980.500000000, A.D. 2025-Nov-01 00:00:00.0000, -4.100308474989725E+08, 2.170395331779648E+08, 3.493277707580782E+07,
2460987.500000000, A.D. 2025-Nov-08 00:00:00.0000, -4.142196111765146E+08, 2.090046052757078E+08, 3.288264573868431E+07,
2460994.500000000, A.D. 2025-Nov-15 00:00:00.0000, -4.182084804561499E+08, 2.008688991230119E+08, 3.081664397648697E+07,
2461001.500000000, A.D. 2025-Nov-22 00:00:00.0000, -4.219953284303339E+08, 1.926362400974295E+08, 2.873575405023628E+07,
2461008.500000000, A.D. 2025-Nov-29 00:00:00.0000, -4.255780691069996E+08, 1.843104848850671E+08, 2.664096377172448E+07,
2461015.500000000, A.D. 2025-Dec-06 00:00:00.0000, -4.289546579335172E+08, 1.758955245761855E+08, 2.453326702468660E+07,
2461022.500000000, A.D. 2025-Dec-13 00:00:00.0000, -4.321230938258768E+08, 1.673952854766740E+08, 2.241366423171867E+07,
2461029.500000000, A.D. 2025-Dec-20 00:00:00.0000, -4.350814192095824E+08, 1.588137286587167E+08, 2.028316252960796E+07,
2461036.500000000, A.D. 2025-Dec-27 00:00:00.0000, -4.378277191456221E+08, 1.501548508395352E+08, 1.814277596283225E+07,
2461043.500000000, A.D. 2026-Jan-03 00:00:00.0000, -4.403601210036584E+08, 1.414226859707533E+08, 1.599352577835628E+07,
2461050.500000000, A.D. 2026-Jan-10 00:00:00.0000, -4.426767945760897E+08, 1.326213068593764E+08, 1.383644075584193E+07,
2461057.500000000, A.D. 2026-Jan-17 00:00:00.0000, -4.447759524029071E+08, 1.237548267288254E+08, 1.167255754414971E+07,
2461064.500000000, A.D. 2026-Jan-24 00:00:00.0000, -4.466558502318165E+08, 1.148274007422951E+08, 9.502920998535864E+06,
2461071.500000000, A.D. 2026-Jan-31 00:00:00.0000, -4.483147875929818E+08, 1.058432274805094E+08, 7.328584515468657E+06,
2461078.500000000, A.D. 2026-Feb-07 00:00:00.0000, -4.497511084300116E+08, 9.680655031605266E+07, 5.150610354391210E+06,
2461085.500000000, A.D. 2026-Feb-14 00:00:00.0000, -4.509632015374132E+08, 8.772165866852084E+07, 2.970069921580575E+06,
2461092.500000000, A.D. 2026-Feb-21 00:00:00.0000, -4.519495004201081E+08, 7.859288971689788E+07, 7.880440272868015E+05,
2461099.500000000, A.D. 2026-Feb-28 00:00:00.0000, -4.527084836630714E+08, 6.942463172140093E+07, -1.394376690585881E+06,
2461106.500000000, A.D. 2026-Mar-07 00:00:00.0000, -4.532386778741826E+08, 6.022132700313272E+07, -3.576091147467960E+06,
2461113.500000000, A.D. 2026-Mar-14 00:00:00.0000, -4.535386604295068E+08, 5.098747224803249E+07, -5.755987443710018E+06,
2461120.500000000, A.D. 2026-Mar-21 00:00:00.0000, -4.536070602401405E+08, 4.172761903198409E+07, -7.932942673883779E+06,
2461127.500000000, A.D. 2026-Mar-28 00:00:00.0000, -4.534425585517786E+08, 3.244637559186620E+07, -1.010582264581293E+07,
2461134.500000000, A.D. 2026-Apr-04 00:00:00.0000, -4.530438903857489E+08, 2.314840887218642E+07, -1.227348153349978E+07,
2461141.500000000, A.D. 2026-Apr-11 00:00:00.0000, -4.524098463541088E+08, 1.383844648358077E+07, -1.443476151920802E+07,
2461148.500000000, A.D. 2026-Apr-18 00:00:00.0000, -4.515392746957926E+08, 4.521278563027156E+06, -1.658849244059766E+07,
2461155.500000000, A.D. 2026-Apr-25 00:00:00.0000, -4.504310834941112E+08, -4.798240453229024E+06, -1.873349144676459E+07,
2461162.500000000, A.D. 2026-May-02 00:00:00.0000, -4.490842430511320E+08, -1.411519017761939E+07, -2.086856266945180E+07,
2461169.500000000, A.D. 2026-May-09 00:00:00.0000, -4.474977883006286E+08, -2.342458281052428E+07, -2.299249692748965E+07,
2461176.500000000, A.D. 2026-May-16 00:00:00.0000, -4.456708208879161E+08, -3.272136173714270E+07, -2.510407148921245E+07,
2461183.500000000, A.D. 2026-May-23 00:00:00.0000, -4.436025108708879E+08, -4.200039916478707E+07, -2.720204981560329E+07,
2461190.500000000, A.D. 2026-May-30 00:00:00.0000, -4.412921001272559E+08, -5.125649248727559E+07, -2.928518106924985E+07,
2461197.500000000, A.D. 2026-Jun-06 00:00:00.0000, -4.387389077937531E+08, -6.048436265686286E+07, -3.135219962988448E+07,
2461204.500000000, A.D. 2026-Jun-13 00:00:00.0000, -4.359423340801932E+08, -6.967865437033802E+07, -3.340182493896126E+07,
2461211.500000000, A.D. 2026-Jun-20 00:00:00.0000, -4.329018629647480E+08, -7.883393514826788E+07, -3.543276139011917E+07,
2461218.500000000, A.D. 2026-Jun-27 00:00:00.0000, -4.296170654721659E+08, -8.794469365502255E+07, -3.744369813929501E+07,
2461225.500000000, A.D. 2026-Jul-04 00:00:00.0000, -4.260876035399095E+08, -9.700533804515050E+07, -3.943330890000697E+07,
2461232.500000000, A.D. 2026-Jul-11 00:00:00.0000, -4.223132342252457E+08, -1.060101944802530E+08, -4.140025176061741E+07,
2461239.500000000, A.D. 2026-Jul-18 00:00:00.0000, -4.182938141691630E+08, -1.149535058037242E+08, -4.334316903327587E+07,
2461246.500000000, A.D. 2026-Jul-25 00:00:00.0000, -4.140293043024432E+08, -1.238294303840111E+08, -4.526068714040536E+07,
2461253.500000000, A.D. 2026-Aug-01 00:00:00.0000, -4.095197747557421E+08, -1.326320411877772E+08, -4.715141655123731E+07,
2461260.500000000, A.D. 2026-Aug-08 00:00:00.0000, -4.047654097679067E+08, -1.413553251323167E+08, -4.901395179523000E+07,
2461267.500000000, A.D. 2026-Aug-15 00:00:00.0000, -3.997665121852362E+08, -1.499931822811210E+08, -5.084687155773340E+07,
2461274.500000000, A.D. 2026-Aug-22 00:00:00.0000, -3.945235083190147E+08, -1.585394236770662E+08, -5.264873869234465E+07,
2461281.500000000, A.D. 2026-Aug-29 00:00:00.0000, -3.890369554560803E+08, -1.669877692041767E+08, -5.441810005657373E+07,
2461288.500000000, A.D. 2026-Sep-05 00:00:00.0000, -3.833075498959134E+08, -1.753318483667434E+08, -5.615348660610209E+07,
$$EOE